SZ-21 MODULE            
1 66515U 25246C   26065.50767940  .00041950  00000+0  36494-3 0  9996
2 66515  41.4735 222.9439 0001433 292.6372  67.4317 15.68252686 17579
SHENZHOU-22             
1 66645U 25272A   26066.15577909  .00030452  00000+0  36120-3 0  9996
2 66645  41.4664 223.5772 0006995 257.5663 102.4393 15.60515598267524
SOYUZ-MS 28             
1 66664U 25275A   26066.25459274  .00014982  00000+0  28421-3 0  9990
2 66664  51.6318  84.3952 0008142 166.2106 193.9106 15.48501510554522
DUPLEX                  
1 66906U 98067XS  26066.27423627  .00039972  00000+0  56716-3 0  9997
2 66906  51.6285  81.5298 0002223 101.9633 258.1608 15.56027322 14751
ISS OBJECT XT           
1 66907U 98067XT  26066.28963071  .00198895  00000+0  16947-2 0  9992
2 66907  51.6250  77.8696 0004648  63.6364 296.5109 15.68379385 14802
ISS OBJECT XU           
1 66908U 98067XU  26066.28800162  .00203645  00000+0  17262-2 0  9995
2 66908  51.6244  77.8556 0004813  65.5331 294.6167 15.68489622 14809
SILVERSAT               
1 66909U 98067XV  26066.29346489  .00253597  00000+0  19116-2 0  9995
2 66909  51.6247  77.1411 0005453  60.9415 299.2128 15.71158496 14814
ISS OBJECT XW           
1 66910U 98067XW  26066.28354968  .00181703  00000+0  15885-2 0  9995
2 66910  51.6239  77.8210 0005017  72.1474 288.0069 15.67806072 14801
ISS OBJECT XX           
1 66911U 98067XX  26066.29506488  .00318743  00000+0  21109-2 0  9995
2 66911  51.6213  76.3842 0006918  68.8737 291.3001 15.74002666 14813
ISS OBJECT XY           
1 66912U 98067XY  26066.28050856  .00118528  00000+0  12597-2 0  9998
2 66912  51.6267  79.3176 0003101  75.0070 285.1268 15.63154776 14776
ISS OBJECT XZ           
1 67683U 98067XZ  26066.28034890  .00051497  00000+0  85311-3 0  9990
2 67683  51.6304  83.8190 0009510 177.5341 182.5698 15.51601257  4414
GXIBA-1                 
1 67684U 98067YA  26066.06384672  .00081342  00000+0  12347-2 0  9993
2 67684  51.6298  84.6245 0010892 167.0714 193.0558 15.53815499  4385
CORAL                   
1 67685U 98067YB  26066.27645674  .00055365  00000+0  90479-3 0  9998
2 67685  51.6303  83.7927 0011423 174.1516 185.9609 15.51927917  4418
ISS OBJECT YC           
1 67686U 98067YC  26066.27173056  .00071287  00000+0  11420-2 0  9998
2 67686  51.6305  83.7633 0007882 141.8436 218.3113 15.52411971  4411
LEOPARD                 
1 67687U 98067YD  26066.27827774  .00054259  00000+0  89333-3 0  9991
2 67687  51.6310  83.8063 0007859 146.4188 213.7301 15.51767020  4332
ISS OBJECT YE           
1 67688U 98067YE  26066.20947167  .00063728  00000+0  10314-2 0  9997
2 67688  51.6306  84.0971 0007790 142.0067 218.1474 15.52177677  4324
