[{"OBJECT_NAME":"SZ-21 MODULE","OBJECT_ID":"2025-246C","EPOCH":"2026-03-06T12:11:03.500160","MEAN_MOTION":15.68252686,"ECCENTRICITY":0.00014339,"INCLINATION":41.4735,"RA_OF_ASC_NODE":222.9439,"ARG_OF_PERICENTER":292.6372,"MEAN_ANOMALY":67.4317,"EPHEMERIS_TYPE":0,"CLASSIFICATION_TYPE":"U","NORAD_CAT_ID":66515,"ELEMENT_SET_NO":999,"REV_AT_EPOCH":1757,"BSTAR":0.00036494457,"MEAN_MOTION_DOT":0.0004195,"MEAN_MOTION_DDOT":0},{"OBJECT_NAME":"SHENZHOU-22","OBJECT_ID":"2025-272A","EPOCH":"2026-03-07T03:44:19.313376","MEAN_MOTION":15.60515598,"ECCENTRICITY":0.00069956,"INCLINATION":41.4664,"RA_OF_ASC_NODE":223.5772,"ARG_OF_PERICENTER":257.5663,"MEAN_ANOMALY":102.4393,"EPHEMERIS_TYPE":0,"CLASSIFICATION_TYPE":"U","NORAD_CAT_ID":66645,"ELEMENT_SET_NO":999,"REV_AT_EPOCH":26752,"BSTAR":0.00036120059,"MEAN_MOTION_DOT":0.00030452,"MEAN_MOTION_DDOT":0},{"OBJECT_NAME":"SOYUZ-MS 28","OBJECT_ID":"2025-275A","EPOCH":"2026-03-07T06:06:36.812736","MEAN_MOTION":15.4850151,"ECCENTRICITY":0.00081427,"INCLINATION":51.6318,"RA_OF_ASC_NODE":84.3952,"ARG_OF_PERICENTER":166.2106,"MEAN_ANOMALY":193.9106,"EPHEMERIS_TYPE":0,"CLASSIFICATION_TYPE":"U","NORAD_CAT_ID":66664,"ELEMENT_SET_NO":999,"REV_AT_EPOCH":55452,"BSTAR":0.00028420598,"MEAN_MOTION_DOT":0.00014982,"MEAN_MOTION_DDOT":0},{"OBJECT_NAME":"DUPLEX","OBJECT_ID":"1998-067XS","EPOCH":"2026-03-07T06:34:54.013728","MEAN_MOTION":15.56027322,"ECCENTRICITY":0.00022239,"INCLINATION":51.6285,"RA_OF_ASC_NODE":81.5298,"ARG_OF_PERICENTER":101.9633,"MEAN_ANOMALY":258.1608,"EPHEMERIS_TYPE":0,"CLASSIFICATION_TYPE":"U","NORAD_CAT_ID":66906,"ELEMENT_SET_NO":999,"REV_AT_EPOCH":1475,"BSTAR":0.0005671647,"MEAN_MOTION_DOT":0.00039972,"MEAN_MOTION_DDOT":0},{"OBJECT_NAME":"ISS OBJECT XT","OBJECT_ID":"1998-067XT","EPOCH":"2026-03-07T06:57:04.093344","MEAN_MOTION":15.68379385,"ECCENTRICITY":0.00046489,"INCLINATION":51.625,"RA_OF_ASC_NODE":77.8696,"ARG_OF_PERICENTER":63.6364,"MEAN_ANOMALY":296.5109,"EPHEMERIS_TYPE":0,"CLASSIFICATION_TYPE":"U","NORAD_CAT_ID":66907,"ELEMENT_SET_NO":999,"REV_AT_EPOCH":1480,"BSTAR":0.0016946979,"MEAN_MOTION_DOT":0.00198895,"MEAN_MOTION_DDOT":0},{"OBJECT_NAME":"ISS OBJECT XU","OBJECT_ID":"1998-067XU","EPOCH":"2026-03-07T06:54:43.339968","MEAN_MOTION":15.68489622,"ECCENTRICITY":0.00048138,"INCLINATION":51.6244,"RA_OF_ASC_NODE":77.8556,"ARG_OF_PERICENTER":65.5331,"MEAN_ANOMALY":294.6167,"EPHEMERIS_TYPE":0,"CLASSIFICATION_TYPE":"U","NORAD_CAT_ID":66908,"ELEMENT_SET_NO":999,"REV_AT_EPOCH":1480,"BSTAR":0.0017261911,"MEAN_MOTION_DOT":0.00203645,"MEAN_MOTION_DDOT":0},{"OBJECT_NAME":"SILVERSAT","OBJECT_ID":"1998-067XV","EPOCH":"2026-03-07T07:02:35.366496","MEAN_MOTION":15.71158496,"ECCENTRICITY":0.00054532,"INCLINATION":51.6247,"RA_OF_ASC_NODE":77.1411,"ARG_OF_PERICENTER":60.9415,"MEAN_ANOMALY":299.2128,"EPHEMERIS_TYPE":0,"CLASSIFICATION_TYPE":"U","NORAD_CAT_ID":66909,"ELEMENT_SET_NO":999,"REV_AT_EPOCH":1481,"BSTAR":0.0019116402,"MEAN_MOTION_DOT":0.00253597,"MEAN_MOTION_DDOT":0},{"OBJECT_NAME":"ISS OBJECT XW","OBJECT_ID":"1998-067XW","EPOCH":"2026-03-07T06:48:18.692352","MEAN_MOTION":15.67806072,"ECCENTRICITY":0.00050172,"INCLINATION":51.6239,"RA_OF_ASC_NODE":77.821,"ARG_OF_PERICENTER":72.1474,"MEAN_ANOMALY":288.0069,"EPHEMERIS_TYPE":0,"CLASSIFICATION_TYPE":"U","NORAD_CAT_ID":66910,"ELEMENT_SET_NO":999,"REV_AT_EPOCH":1480,"BSTAR":0.0015884808,"MEAN_MOTION_DOT":0.00181703,"MEAN_MOTION_DDOT":0},{"OBJECT_NAME":"ISS OBJECT XX","OBJECT_ID":"1998-067XX","EPOCH":"2026-03-07T07:04:53.605632","MEAN_MOTION":15.74002666,"ECCENTRICITY":0.00069185,"INCLINATION":51.6213,"RA_OF_ASC_NODE":76.3842,"ARG_OF_PERICENTER":68.8737,"MEAN_ANOMALY":291.3001,"EPHEMERIS_TYPE":0,"CLASSIFICATION_TYPE":"U","NORAD_CAT_ID":66911,"ELEMENT_SET_NO":999,"REV_AT_EPOCH":1481,"BSTAR":0.0021109141,"MEAN_MOTION_DOT":0.00318743,"MEAN_MOTION_DDOT":0},{"OBJECT_NAME":"ISS OBJECT XY","OBJECT_ID":"1998-067XY","EPOCH":"2026-03-07T06:43:55.939584","MEAN_MOTION":15.63154776,"ECCENTRICITY":0.00031015,"INCLINATION":51.6267,"RA_OF_ASC_NODE":79.3176,"ARG_OF_PERICENTER":75.007,"MEAN_ANOMALY":285.1268,"EPHEMERIS_TYPE":0,"CLASSIFICATION_TYPE":"U","NORAD_CAT_ID":66912,"ELEMENT_SET_NO":999,"REV_AT_EPOCH":1477,"BSTAR":0.0012596843,"MEAN_MOTION_DOT":0.00118528,"MEAN_MOTION_DDOT":0},{"OBJECT_NAME":"ISS OBJECT XZ","OBJECT_ID":"1998-067XZ","EPOCH":"2026-03-07T06:43:42.144960","MEAN_MOTION":15.51601257,"ECCENTRICITY":0.00095102,"INCLINATION":51.6304,"RA_OF_ASC_NODE":83.819,"ARG_OF_PERICENTER":177.5341,"MEAN_ANOMALY":182.5698,"EPHEMERIS_TYPE":0,"CLASSIFICATION_TYPE":"U","NORAD_CAT_ID":67683,"ELEMENT_SET_NO":999,"REV_AT_EPOCH":441,"BSTAR":0.00085311198,"MEAN_MOTION_DOT":0.00051497,"MEAN_MOTION_DDOT":0},{"OBJECT_NAME":"GXIBA-1","OBJECT_ID":"1998-067YA","EPOCH":"2026-03-07T01:31:56.356608","MEAN_MOTION":15.53815499,"ECCENTRICITY":0.00108926,"INCLINATION":51.6298,"RA_OF_ASC_NODE":84.6245,"ARG_OF_PERICENTER":167.0714,"MEAN_ANOMALY":193.0558,"EPHEMERIS_TYPE":0,"CLASSIFICATION_TYPE":"U","NORAD_CAT_ID":67684,"ELEMENT_SET_NO":999,"REV_AT_EPOCH":438,"BSTAR":0.0012346692,"MEAN_MOTION_DOT":0.00081342,"MEAN_MOTION_DDOT":0},{"OBJECT_NAME":"CORAL","OBJECT_ID":"1998-067YB","EPOCH":"2026-03-07T06:38:05.862336","MEAN_MOTION":15.51927917,"ECCENTRICITY":0.00114231,"INCLINATION":51.6303,"RA_OF_ASC_NODE":83.7927,"ARG_OF_PERICENTER":174.1516,"MEAN_ANOMALY":185.9609,"EPHEMERIS_TYPE":0,"CLASSIFICATION_TYPE":"U","NORAD_CAT_ID":67685,"ELEMENT_SET_NO":999,"REV_AT_EPOCH":441,"BSTAR":0.00090478991,"MEAN_MOTION_DOT":0.00055365,"MEAN_MOTION_DDOT":0},{"OBJECT_NAME":"ISS OBJECT YC","OBJECT_ID":"1998-067YC","EPOCH":"2026-03-07T06:31:17.520384","MEAN_MOTION":15.52411971,"ECCENTRICITY":0.0007882,"INCLINATION":51.6305,"RA_OF_ASC_NODE":83.7633,"ARG_OF_PERICENTER":141.8436,"MEAN_ANOMALY":218.3113,"EPHEMERIS_TYPE":0,"CLASSIFICATION_TYPE":"U","NORAD_CAT_ID":67686,"ELEMENT_SET_NO":999,"REV_AT_EPOCH":441,"BSTAR":0.0011420469,"MEAN_MOTION_DOT":0.00071287,"MEAN_MOTION_DDOT":0},{"OBJECT_NAME":"LEOPARD","OBJECT_ID":"1998-067YD","EPOCH":"2026-03-07T06:40:43.196736","MEAN_MOTION":15.5176702,"ECCENTRICITY":0.00078596,"INCLINATION":51.631,"RA_OF_ASC_NODE":83.8063,"ARG_OF_PERICENTER":146.4188,"MEAN_ANOMALY":213.7301,"EPHEMERIS_TYPE":0,"CLASSIFICATION_TYPE":"U","NORAD_CAT_ID":67687,"ELEMENT_SET_NO":999,"REV_AT_EPOCH":433,"BSTAR":0.00089333361,"MEAN_MOTION_DOT":0.00054259,"MEAN_MOTION_DDOT":0},{"OBJECT_NAME":"ISS OBJECT YE","OBJECT_ID":"1998-067YE","EPOCH":"2026-03-07T05:01:38.352288","MEAN_MOTION":15.52177677,"ECCENTRICITY":0.00077906,"INCLINATION":51.6306,"RA_OF_ASC_NODE":84.0971,"ARG_OF_PERICENTER":142.0067,"MEAN_ANOMALY":218.1474,"EPHEMERIS_TYPE":0,"CLASSIFICATION_TYPE":"U","NORAD_CAT_ID":67688,"ELEMENT_SET_NO":999,"REV_AT_EPOCH":432,"BSTAR":0.0010313799,"MEAN_MOTION_DOT":0.00063728,"MEAN_MOTION_DDOT":0}]
